STARLINK-37531          
1 69136U 26110N   26158.50004630 -.02536794  00000+0 -23987-1 0  9992
2 69136  97.2843 354.8405 0001828  87.3054 161.2587 15.70252144  4101
STARLINK-37662          
1 69137U 26110P   26158.50004630 -.02533103  00000+0 -30492-1 0  9993
2 69137  97.2851 354.8179 0001978  80.8029 113.6281 15.64333535  4104
STARLINK-37658          
1 69138U 26110Q   26158.50004630 -.02296829  00000+0 -38806-1 0  9992
2 69138  97.2855 354.7727 0001971  71.0327   6.1592 15.55122452  4108
STARLINK-37659          
1 69139U 26110R   26158.50004630 -.02355057  00000+0 -42706-1 0  9996
2 69139  97.2855 354.7567 0001487  78.4968 324.7968 15.53295655  4105
STARLINK-37653          
1 69140U 26110S   26158.50004630 -.02794663  00000+0 -53179-1 0  9994
2 69140  97.2855 354.7502 0001793  67.8051 325.1752 15.51998551  4100
STARLINK-37654          
1 69141U 26110T   26158.50004630 -.02482504  00000+0 -31212-1 0  9997
2 69141  97.2851 354.8244 0001943  80.8947 132.3476 15.63159422  4107
STARLINK-37655          
1 69142U 26110U   26158.50004630 -.02379527  00000+0 -25121-1 0  9990
2 69142  97.2845 354.8399 0001752  95.1127 148.0388 15.67367221  4107
STARLINK-37636          
1 69143U 26110V   26158.50004630 -.02496679  00000+0 -18888-1 0  9991
2 69143  97.2841 354.8725 0001510  80.7623 241.6160 15.75993140  4102
STARLINK-37638          
1 69144U 26110W   26158.50004630 -.02530461  00000+0 -18689-1 0  9999
2 69144  97.2839 354.8761 0001499  74.3636 254.1061 15.76590327  4109
STARLINK-37657          
1 69145U 26110X   26158.50004630 -.02529266  00000+0 -33051-1 0  9991
2 69145  97.2851 354.8283 0002051  91.4304 129.4909 15.62246943  4157
STARLINK-37639          
1 69146U 26110Y   26158.18683632 -.00908379  00000+0 -56401-2 0  9990
2 69146  97.2837 354.5495 0002337 159.2278 200.9085 15.79274015  4063
STARLINK-37661          
1 69147U 26110Z   26158.50004630 -.02464817  00000+0 -40937-1 0  9994
2 69147  97.2856 354.7993 0002018  69.7531  73.1812 15.55858245  4158
STARLINK-37395          
1 69148U 26111A   26158.47141191  .00192442  00000+0  95446-3 0  9991
2 69148  53.1580 200.3524 0000709 120.0998 240.0095 15.80929983  2728
STARLINK-37346          
1 69149U 26111B   26158.47036573  .00255065  00000+0  12527-2 0  9998
2 69149  53.1581 200.3460 0000987  66.9446 293.1681 15.80965558  2721
STARLINK-37332          
1 69150U 26111C   26158.46900418  .00197501  00000+0  97882-3 0  9995
2 69150  53.1583 200.3356 0001200  73.5801 286.5354 15.80931384  2720
STARLINK-37297          
1 69151U 26111D   26158.47015240  .00184930  00000+0  91821-3 0  9996
2 69151  53.1582 200.3439 0001063  67.9096 292.2040 15.80928455  2723
STARLINK-37317          
1 69152U 26111E   26158.46818786  .00143832  00000+0  71878-3 0  9998
2 69152  53.1583 200.3305 0000791 122.4800 237.6299 15.80915247  2728
STARLINK-37374          
1 69153U 26111F   26158.08750988 -.00496756  00000+0 -27391-2 0  9994
2 69153  53.1587 202.2222 0003413 358.2015   1.8994 15.80226401  2666
STARLINK-37235          
1 69154U 26111G   26158.50004630 -.02536054  00000+0 -22886-1 0  9999
2 69154  53.1597 200.2313 0001372  67.0361  85.6882 15.70825866  3990
STARLINK-37329          
1 69155U 26111H   26158.46863773  .00187796  00000+0  93180-3 0  9994
2 69155  53.1584 200.3335 0000865  54.1067 306.0036 15.80934865  2720
STARLINK-37345          
1 69156U 26111J   26158.40397310  .00324837  00000+0  15797-2 0  9994
2 69156  53.1585 200.6415 0002316 120.8458 239.2793 15.80989237  2711
STARLINK-37353          
1 69157U 26111K   26158.46697586  .00150500  00000+0  75123-3 0  9993
2 69157  53.1587 200.3225 0000926  77.8455 282.2672 15.80918949  2720
STARLINK-37363          
1 69158U 26111L   26158.50004630  .00041272  00000+0  21165-3 0  9993
2 69158  53.1590 200.1342 0001362  78.3958 121.8609 15.80872465  3992
STARLINK-37343          
1 69159U 26111M   26158.50004630 -.02520007  00000+0 -18039-1 0  9990
2 69159  53.1598 200.1492 0001270  72.3301 120.2350 15.76731323  3999
STARLINK-37328          
1 69160U 26111N   26158.40155256  .00411069  00000+0  19341-2 0  9993
2 69160  53.1589 200.6252 0003363 149.2454 210.8766 15.81476589  2710
STARLINK-37311          
1 69161U 26111P   26158.50004630 -.00017481  00000+0 -96988-4 0  9990
2 69161  53.1594 200.1383 0000232  86.5006 111.5451 15.78068766  3994
STARLINK-36286          
1 69162U 26111Q   26158.50004630  .00060335  00000+0  34928-3 0  9990
2 69162  53.1595 200.1281 0000913  73.5608 129.4299 15.78029523  3999
STARLINK-37196          
1 69163U 26111R   26158.50004630  .00061081  00000+0  35349-3 0  9998
2 69163  53.1595 200.1597 0001049 101.2952  86.1572 15.78031375  3993
STARLINK-36288          
1 69164U 26111S   26158.50004630  .00023564  00000+0  13917-3 0  9990
2 69164  53.1597 200.1497 0001227  78.9453 113.1026 15.78056396  3994
STARLINK-37445          
1 69165U 26111T   26158.50004630  .00103157  00000+0  59206-3 0  9999
2 69165  53.1594 200.1129 0000783  69.1041 140.8204 15.78007534  3990
