OBJECT_NAME,OBJECT_ID,EPOCH,MEAN_MOTION,ECCENTRICITY,INCLINATION,RA_OF_ASC_NODE,ARG_OF_PERICENTER,MEAN_ANOMALY,EPHEMERIS_TYPE,CLASSIFICATION_TYPE,NORAD_CAT_ID,ELEMENT_SET_NO,REV_AT_EPOCH,BSTAR,MEAN_MOTION_DOT,MEAN_MOTION_DDOT
STARLINK-37531,2026-110N,2026-06-07T12:00:04.000320,15.70252144,.0001828,97.2843,354.8405,87.3054,161.2587,0,U,69136,999,410,-.23987E-1,-.2536794E-1,0
STARLINK-37662,2026-110P,2026-06-07T12:00:04.000320,15.64333535,.0001978,97.2851,354.8179,80.8029,113.6281,0,U,69137,999,410,-.30492E-1,-.2533103E-1,0
STARLINK-37658,2026-110Q,2026-06-07T12:00:04.000320,15.55122452,.0001971,97.2855,354.7727,71.0327,6.1592,0,U,69138,999,410,-.38806E-1,-.2296829E-1,0
STARLINK-37659,2026-110R,2026-06-07T12:00:04.000320,15.53295655,.0001487,97.2855,354.7567,78.4968,324.7968,0,U,69139,999,410,-.42706E-1,-.2355057E-1,0
STARLINK-37653,2026-110S,2026-06-07T12:00:04.000320,15.51998551,.0001793,97.2855,354.7502,67.8051,325.1752,0,U,69140,999,410,-.53179E-1,-.2794663E-1,0
STARLINK-37654,2026-110T,2026-06-07T12:00:04.000320,15.63159422,.0001943,97.2851,354.8244,80.8947,132.3476,0,U,69141,999,410,-.31212E-1,-.2482504E-1,0
STARLINK-37655,2026-110U,2026-06-07T12:00:04.000320,15.67367221,.0001752,97.2845,354.8399,95.1127,148.0388,0,U,69142,999,410,-.25121E-1,-.2379527E-1,0
STARLINK-37636,2026-110V,2026-06-07T12:00:04.000320,15.75993140,.000151,97.2841,354.8725,80.7623,241.6160,0,U,69143,999,410,-.18888E-1,-.2496679E-1,0
STARLINK-37638,2026-110W,2026-06-07T12:00:04.000320,15.76590327,.0001499,97.2839,354.8761,74.3636,254.1061,0,U,69144,999,410,-.18689E-1,-.2530461E-1,0
STARLINK-37657,2026-110X,2026-06-07T12:00:04.000320,15.62246943,.0002051,97.2851,354.8283,91.4304,129.4909,0,U,69145,999,415,-.33051E-1,-.2529266E-1,0
STARLINK-37639,2026-110Y,2026-06-07T04:29:02.658048,15.79274015,.0002337,97.2837,354.5495,159.2278,200.9085,0,U,69146,999,406,-.56401E-2,-.908379E-2,0
STARLINK-37661,2026-110Z,2026-06-07T12:00:04.000320,15.55858245,.0002018,97.2856,354.7993,69.7531,73.1812,0,U,69147,999,415,-.40937E-1,-.2464817E-1,0
STARLINK-37395,2026-111A,2026-06-07T11:18:49.989024,15.80929983,.0000709,53.1580,200.3524,120.0998,240.0095,0,U,69148,999,272,.95446E-3,.192442E-2,0
STARLINK-37346,2026-111B,2026-06-07T11:17:19.599072,15.80965558,.0000987,53.1581,200.3460,66.9446,293.1681,0,U,69149,999,272,.12527E-2,.255065E-2,0
STARLINK-37332,2026-111C,2026-06-07T11:15:21.961152,15.80931384,.00012,53.1583,200.3356,73.5801,286.5354,0,U,69150,999,272,.97882E-3,.197501E-2,0
STARLINK-37297,2026-111D,2026-06-07T11:17:01.167360,15.80928455,.0001063,53.1582,200.3439,67.9096,292.2040,0,U,69151,999,272,.91821E-3,.18493E-2,0
STARLINK-37317,2026-111E,2026-06-07T11:14:11.431104,15.80915247,.0000791,53.1583,200.3305,122.4800,237.6299,0,U,69152,999,272,.71878E-3,.143832E-2,0
STARLINK-37374,2026-111F,2026-06-07T02:06:00.853632,15.80226401,.0003413,53.1587,202.2222,358.2015,1.8994,0,U,69153,999,266,-.27391E-2,-.496756E-2,0
STARLINK-37235,2026-111G,2026-06-07T12:00:04.000320,15.70825866,.0001372,53.1597,200.2313,67.0361,85.6882,0,U,69154,999,399,-.22886E-1,-.2536054E-1,0
STARLINK-37329,2026-111H,2026-06-07T11:14:50.299872,15.80934865,.0000865,53.1584,200.3335,54.1067,306.0036,0,U,69155,999,272,.9318E-3,.187796E-2,0
STARLINK-37345,2026-111J,2026-06-07T09:41:43.275840,15.80989237,.0002316,53.1585,200.6415,120.8458,239.2793,0,U,69156,999,271,.15797E-2,.324837E-2,0
STARLINK-37353,2026-111K,2026-06-07T11:12:26.714304,15.80918949,.0000926,53.1587,200.3225,77.8455,282.2672,0,U,69157,999,272,.75123E-3,.1505E-2,0
STARLINK-37363,2026-111L,2026-06-07T12:00:04.000320,15.80872465,.0001362,53.1590,200.1342,78.3958,121.8609,0,U,69158,999,399,.21165E-3,.41272E-3,0
STARLINK-37343,2026-111M,2026-06-07T12:00:04.000320,15.76731323,.000127,53.1598,200.1492,72.3301,120.2350,0,U,69159,999,399,-.18039E-1,-.2520007E-1,0
STARLINK-37328,2026-111N,2026-06-07T09:38:14.141184,15.81476589,.0003363,53.1589,200.6252,149.2454,210.8766,0,U,69160,999,271,.19341E-2,.411069E-2,0
STARLINK-37311,2026-111P,2026-06-07T12:00:04.000320,15.78068766,.0000232,53.1594,200.1383,86.5006,111.5451,0,U,69161,999,399,-.96988E-4,-.17481E-3,0
STARLINK-36286,2026-111Q,2026-06-07T12:00:04.000320,15.78029523,.0000913,53.1595,200.1281,73.5608,129.4299,0,U,69162,999,399,.34928E-3,.60335E-3,0
STARLINK-37196,2026-111R,2026-06-07T12:00:04.000320,15.78031375,.0001049,53.1595,200.1597,101.2952,86.1572,0,U,69163,999,399,.35349E-3,.61081E-3,0
STARLINK-36288,2026-111S,2026-06-07T12:00:04.000320,15.78056396,.0001227,53.1597,200.1497,78.9453,113.1026,0,U,69164,999,399,.13917E-3,.23564E-3,0
STARLINK-37445,2026-111T,2026-06-07T12:00:04.000320,15.78007534,.0000783,53.1594,200.1129,69.1041,140.8204,0,U,69165,999,399,.59206E-3,.103157E-2,0
